OUFTI-1                 
1 41458U 16025C   21129.31444877  .00003347  00000-0  16442-3 0  9996
2 41458  98.1375 264.0917 0158813 191.2135 168.5538 15.08431788276572
E-ST@R-II               
1 41459U 16025D   21129.33313593  .00001591  00000-0  81471-4 0  9993
2 41459  98.1352 263.2190 0160417 193.9439 165.7358 15.07860388276526
AAUSAT 4                
1 41460U 16025E   21129.44140758  .00004648  00000-0  21858-3 0  9996
2 41460  98.1347 267.0164 0148115 178.0650 182.1166 15.10869179276829
AIST-2D (RS-48)         
1 41465U 16026B   21129.51536088  .00001497  00000-0  44679-4 0  9991
2 41465  97.1125  14.9528 0011868 146.0231 335.2696 15.36098557281450
SAMSAT-218D             
1 41466U 16026C   21129.50335957  .00012299  00000-0  19011-3 0  9996
2 41466  97.1596  37.8981 0007383  84.0810  90.4740 15.54202390282780
NUSAT-1 (FRESCO)        
1 41557U 16033B   21129.47500488  .00001427  00000-0  52743-4 0  9995
2 41557  97.3914 223.6383 0013434  20.9847 111.5662 15.29304664275577
NUSAT-2 (BATATA)        
1 41558U 16033C   21129.51495547  .00001423  00000-0  49425-4 0  9999
2 41558  97.4016 227.3181 0012273  15.4828  39.7617 15.31397172275768
CARTOSAT-2C             
1 41599U 16040A   21129.54006780  .00000503  00000-0  27020-4 0  9997
2 41599  97.4028 189.6624 0014663 147.6634 349.2470 15.19267004270606
SATHYABAMASAT           
1 41600U 16040B   21129.13133686  .00001934  00000-0  77744-4 0  9998
2 41600  97.2757 187.3633 0014687 114.7946 245.4823 15.26008110271157
LAPAN-A3                
1 41603U 16040E   21129.55685929  .00000097  00000-0  75210-5 0  9995
2 41603  97.2606 177.9591 0014502 133.9587 332.1927 15.20014814270678
BIROS                   
1 41604U 16040F   21129.42701896  .00000536  00000-0  26000-4 0  9994
2 41604  97.2662 183.1626 0013755 115.3163 244.9501 15.22520392270967
SWAYAM                  
1 41607U 16040J   21129.14765494  .00001696  00000-0  69235-4 0  9995
2 41607  97.2709 186.2172 0014341 114.7335 245.5398 15.25668523271052
BEESAT-4                
1 41619U 16040W   21129.42949505  .00001676  00000-0  69121-4 0  9998
2 41619  97.2728 186.6102 0012449 107.4370 252.8230 15.25348510259062
3CAT-2                  
1 41732U 16051B   21129.39363807  .00001328  00000-0  50122-4 0  9992
2 41732  97.3763  50.0087 0011144 289.9440 202.8276 15.28765554263535
PRATHAM                 
1 41783U 16059A   21129.14219706  .00000057  00000-0  20113-4 0  9992
2 41783  97.9678 180.5874 0033731  12.4749 347.7281 14.63134003246502
ALSAT 1N                
1 41789U 16059G   21129.42346053  .00000088  00000-0  25435-4 0  9991
2 41789  97.9722 184.4561 0028218 357.6345   2.4723 14.64415129246737
LISHUI 1-01             
1 41845U 16066E   21129.44410246  .00002885  00000-0  37805-3 0  9990
2 41845  98.7289 230.8233 0270341 239.9831 117.4291 14.58954755237718
CARTOSAT-2D             
1 41948U 17008A   21129.08931916  .00000461  00000-0  25107-4 0  9994
2 41948  97.4453 189.9725 0005961 305.3790  54.6897 15.19262197234404
NAYIF-1 (EO-88)         
1 42017U 17008BX  21129.14009666  .00001694  00000-0  64713-4 0  9992
2 42017  97.3181 197.4435 0004492 238.7280 121.3520 15.27987819235255
ZHUHAI-1 02 (CAS-4B)    
1 42759U 17034B   21129.48560366  .00000302  00000-0  31501-4 0  9994
2 42759  43.0195  35.3089 0010384 282.3747 246.6648 15.10185353215251
ZHUHAI-1 01 (CAS-4A)    
1 42761U 17034D   21129.47876610  .00000345  00000-0  34056-4 0  9993
2 42761  43.0189  34.4277 0010793 283.4777 245.5269 15.10267450215251
UCLSAT                  
1 42765U 17036A   21129.08236144  .00001348  00000-0  57245-4 0  9997
2 42765  97.2532 179.8813 0009664 324.6994  35.3603 15.24712857216172
NIUSAT                  
1 42766U 17036B   21129.08279492  .00001056  00000-0  48256-4 0  9999
2 42766  97.2538 176.4183 0013757 319.7472  40.2746 15.22619703215228
CARTOSAT-2E             
1 42767U 17036C   21128.46336707  .00000214  00000-0  13448-4 0  9994
2 42767  97.5080 187.7270 0008560 359.0470 115.8095 15.19183922214878
LITUANICASAT-2          
1 42768U 17036D   21129.13444315  .00002224  00000-0  88972-4 0  9992
2 42768  97.2607 180.6121 0012170 309.6064  50.4099 15.26046315215477
AALTO-1                 
1 42775U 17036L   21129.12024529  .00000843  00000-0  39132-4 0  9999
2 42775  97.2508 176.7228 0012274 319.2585  40.7733 15.22590332215217
URSA MAIOR              
1 42776U 17036M   21129.12937003  .00000902  00000-0  41391-4 0  9996
2 42776  97.2521 177.1751 0012047 318.6586  41.3738 15.22843303215234
COMPASS 2               
1 42777U 17036N   21129.09283027  .00001863  00000-0  76241-4 0  9992
2 42777  97.2590 180.7750 0010193 312.9378  47.1004 15.25495874215415
MAX VALIER SAT          
1 42778U 17036P   21129.09408792  .00001027  00000-0  45849-4 0  9993
2 42778  97.2586 178.9898 0010577 322.1403  37.9090 15.23496081215298
PEGASUS                 
1 42784U 17036V   21129.18267879  .00001220  00000-0  52721-4 0  9991
2 42784  97.2540 179.5231 0010314 325.7139  34.3432 15.24297743215372
NUDTSAT                 
1 42787U 17036Y   21129.10685599  .00002337  00000-0  93109-4 0  9994
2 42787  97.2579 181.7266 0009487 319.9928  40.0610 15.26158654215337
SUCHAI                  
1 42788U 17036Z   21129.13613134  .00001515  00000-0  63350-4 0  9996
2 42788  97.2550 180.4157 0009720 323.0799  36.9769 15.25059049215497
SKCUBE                  
1 42789U 17036AA  21129.09301640  .00001413  00000-0  59687-4 0  9993
2 42789  97.2544 180.1051 0009672 324.1733  35.8856 15.24808206215397
VZLUSAT-1               
1 42790U 17036AB  21129.10033118  .00001889  00000-0  75870-4 0  9998
2 42790  97.2574 181.7100 0008855 319.5140  40.5439 15.26135001215484
ROBUSTA-1B              
1 42792U 17036AD  21129.13349896  .00001401  00000-0  58826-4 0  9998
2 42792  97.2546 180.5084 0009237 324.2633  35.7986 15.25039672215432
D-SAT                   
1 42794U 17036AF  21129.04648713  .00000277  00000-0  29171-4 0  9991
2 42794  97.4640 151.0253 0125513 358.4465   1.6346 14.91543266211181
NORSAT 2                
1 42828U 17042D   21129.19676338  .00000454  00000-0  50207-4 0  9997
2 42828  97.4831   2.1556 0012741 278.1638  81.8136 14.91821355207888
TECHNOSAT               
1 42829U 17042E   21129.53729121  .00000162  00000-0  21536-4 0  9994
2 42829  97.4746   1.1318 0012619 278.5074  81.4715 14.91268945207880
2017-042F               
1 42830U 17042F   21129.53168596  .00000895  00000-0  91565-4 0  9991
2 42830  97.4864   3.6017 0012424 270.9385  89.0412 14.92810880207993
FLYING LAPTOP           
1 42831U 17042G   21129.04127922 -.00000248  00000-0 -19592-4 0  9990
2 42831  97.4769   0.8765 0012471 281.7174  78.2674 14.91282426207814
CORVUS BC2              
1 42846U 17042X   21129.20663735  .00000244  00000-0  29010-4 0  9991
2 42846  97.4783   3.2252 0008002 270.6380  89.3923 14.92280966207981
CORVUS BC1              
1 42847U 17042Y   21129.18010145  .00000211  00000-0  25774-4 0  9997
2 42847  97.4787   3.4307 0007616 269.5964  90.4383 14.92382758207989
SIMPL                   
1 42983U 98067NF  21129.47928246  .00005408  00000-0  56786-4 0  9996
2 42983  51.6360  97.3110 0002597 183.3545 176.7434 15.66187913201295
CZ-4C R/B               
1 43012U 17072C   21129.53015994  .00000061  00000-0  23921-4 0  9996
2 43012  98.7308 142.3880 0128602 111.5901 249.9054 14.56165925185078
RADFXSAT (FOX-1B)       
1 43017U 17073E   21129.24373676  .00000765  00000-0  63451-4 0  9997
2 43017  97.7098  34.7813 0256650  68.4245 294.4106 14.79476275187325
EAGLESAT 1              
1 43018U 17073F   21129.23811798  .00001336  00000-0  10529-3 0  9991
2 43018  97.7105  35.5992 0253445  65.3076 297.4296 14.80487908187240
ECAMSAT                 
1 43019U 98067NG  21129.43116427  .00019878  00000-0  12158-3 0  9993
2 43019  51.6386  66.2866 0002579 149.9847 210.1302 15.77352461284023
INS-1C                  
1 43116U 18004F   21129.47808685  .00001289  00000-0  54476-4 0  9999
2 43116  97.4151 204.3238 0008494 349.9730  10.1337 15.25021026184705
FLOCK 3P'-3             
1 43119U 18004J   21129.15639606  .00000848  00000-0  37741-4 0  9998
2 43119  97.4140 202.9598 0009558 359.1973   0.9247 15.24168471184592
FLOCK 3P'-2             
1 43120U 18004K   21129.18948281  .00000705  00000-0  32173-4 0  9991
2 43120  97.4146 202.8060 0009569 359.7050   0.4180 15.23859177184586
FLOCK 3P'-1             
1 43121U 18004L   21129.16672908  .00002668  00000-0  10391-3 0  9997
2 43121  97.4143 204.4721 0008510 353.4376   6.6750 15.26833919184628
FLOCK 3P'-4             
1 43122U 18004M   21129.18564807  .00000691  00000-0  31545-4 0  9997
2 43122  97.4154 202.9016 0009459   1.9046 358.2226 15.23891117184583
MICROMAS-2A             
1 43131U 18004W   21129.20410853  .00002165  00000-0  84073-4 0  9993
2 43131  97.4125 205.3799 0007881 353.4718   6.6416 15.27149609184776
PICSAT                  
1 43132U 18004X   21129.16837722  .00001282  00000-0  53115-4 0  9999
2 43132  97.4101 204.0649 0008768 358.0187   2.1015 15.25711654184697
CNUSAIL-1               
1 43133U 18004Y   21129.23632974  .00000985  00000-0  42655-4 0  9996
2 43133  97.4077 203.2165 0009019 359.8237   0.2996 15.24746428184658
2018-004Z               
1 43134U 18004Z   21129.47106391  .00001237  00000-0  51908-4 0  9994
2 43134  97.4093 204.0791 0008686 358.2887   1.8319 15.25337373184713
FOX-1D (AO-92)          
1 43137U 18004AC  21129.49339113  .00001112  00000-0  47233-4 0  9997
2 43137  97.4080 203.9225 0008573   0.0322   0.0914 15.25135036184717
STEP CUBE LAB           
1 43138U 18004AD  21129.18610140  .00001856  00000-0  73328-4 0  9995
2 43138  97.4123 205.2330 0008055 358.1894   1.9314 15.26757597184766
XIAOXIANG-2             
1 43155U 18008A   21129.56000370  .00000750  00000-0  46762-4 0  9992
2 43155  97.4047 195.6948 0018950 101.7251   4.0401 15.12352523182192
